start=new Date('2022-05-18T00:00:00.000Z').valueOf();
sats=[{"INCLINATION":"53.2174","TIME_SYSTEM":"UTC","ECCENTRICITY":"0.00012250","COUNTRY_CODE":"US","LAUNCH_DATE":"2022-03-03","NORAD_CAT_ID":"51897","RCS_SIZE":"LARGE","PERIOD":"92.728","OBJECT_ID":"2022-022AX","MEAN_ELEMENT_THEORY":"SGP4","ELEMENT_SET_NO":"999","MEAN_MOTION_DDOT":"0.0000000000000","BSTAR":"-0.01226100000000","MEAN_MOTION_DOT":"-0.00710042","OBJECT_TYPE":"PAYLOAD","TLE_LINE2":"2 51897  53.2174 132.8936 0001225  50.8021 313.0429 15.52925731 13042","REV_AT_EPOCH":"1304","REF_FRAME":"TEME","EPHEMERIS_TYPE":"0","ARG_OF_PERICENTER":"50.8021","SITE":"AFETR","TLE_LINE1":"1 51897U 22022AX  22137.83334491 -.00710042  00000-0 -12261-1 0  9997","DECAY_DATE":null,"EPOCH":"2022-05-17T20:00:01.000224","FILE":"3450601","CLASSIFICATION_TYPE":"U","GP_ID":"203796837","OBJECT_NAME":"STARLINK-3598","APOAPSIS":"409.022","CENTER_NAME":"EARTH","MEAN_MOTION":"15.52925731","PERIAPSIS":"407.360","MEAN_ANOMALY":"313.0429","SEMIMAJOR_AXIS":"6786.326","RA_OF_ASC_NODE":"132.8936"},{"TLE_LINE2":"2 51898  53.2174 132.9044 0001167  57.8834 306.8012 15.52930109 13096","REV_AT_EPOCH":"1309","OBJECT_TYPE":"PAYLOAD","ARG_OF_PERICENTER":"57.8834","SITE":"AFETR","REF_FRAME":"TEME","EPHEMERIS_TYPE":"0","TLE_LINE1":"1 51898U 22022AY  22137.83334491 -.00710083  00000-0 -12260-1 0  9992","DECAY_DATE":null,"EPOCH":"2022-05-17T20:00:01.000224","FILE":"3450496","CLASSIFICATION_TYPE":"U","GP_ID":"203794152","OBJECT_NAME":"STARLINK-3597","CENTER_NAME":"EARTH","APOAPSIS":"408.970","MEAN_MOTION":"15.52930109","PERIAPSIS":"407.386","MEAN_ANOMALY":"306.8012","RA_OF_ASC_NODE":"132.9044","SEMIMAJOR_AXIS":"6786.313","TIME_SYSTEM":"UTC","INCLINATION":"53.2174","LAUNCH_DATE":"2022-03-03","RCS_SIZE":"LARGE","NORAD_CAT_ID":"51898","PERIOD":"92.728","ECCENTRICITY":"0.00011670","COUNTRY_CODE":"US","OBJECT_ID":"2022-022AY","MEAN_ELEMENT_THEORY":"SGP4","MEAN_MOTION_DOT":"-0.00710083","ELEMENT_SET_NO":"999","BSTAR":"-0.01226000000000","MEAN_MOTION_DDOT":"0.0000000000000"},{"APOAPSIS":"447.223","CENTER_NAME":"EARTH","FILE":"3450600","OBJECT_NAME":"STARLINK-3700","GP_ID":"203797020","CLASSIFICATION_TYPE":"U","RA_OF_ASC_NODE":"159.7795","SEMIMAJOR_AXIS":"6824.158","MEAN_MOTION":"15.40029959","PERIAPSIS":"444.822","MEAN_ANOMALY":"184.3972","REF_FRAME":"TEME","EPHEMERIS_TYPE":"0","ARG_OF_PERICENTER":"40.2884","SITE":"AFETR","OBJECT_TYPE":"PAYLOAD","TLE_LINE2":"2 51956  53.2175 159.7795 0001759  40.2884 184.3972 15.40029959 12137","REV_AT_EPOCH":"1213","DECAY_DATE":null,"EPOCH":"2022-05-17T20:00:01.000224","TLE_LINE1":"1 51956U 22025A   22137.83334491 -.00717882  00000-0 -19153-1 0  9992","ECCENTRICITY":"0.00017590","COUNTRY_CODE":"US","LAUNCH_DATE":"2022-03-09","RCS_SIZE":"LARGE","PERIOD":"93.505","NORAD_CAT_ID":"51956","ELEMENT_SET_NO":"999","MEAN_MOTION_DDOT":"0.0000000000000","BSTAR":"-0.01915300000000","MEAN_MOTION_DOT":"-0.00717882","OBJECT_ID":"2022-025A","MEAN_ELEMENT_THEORY":"SGP4","TIME_SYSTEM":"UTC","INCLINATION":"53.2175"},{"OBJECT_ID":"2022-025B","MEAN_ELEMENT_THEORY":"SGP4","MEAN_MOTION_DDOT":"0.0000000000000","BSTAR":"-0.01834000000000","ELEMENT_SET_NO":"999","MEAN_MOTION_DOT":"-0.00719459","COUNTRY_CODE":"US","ECCENTRICITY":"0.00015350","PERIOD":"93.421","RCS_SIZE":"LARGE","NORAD_CAT_ID":"51957","LAUNCH_DATE":"2022-03-09","INCLINATION":"53.2172","TIME_SYSTEM":"UTC","PERIAPSIS":"440.922","MEAN_ANOMALY":"259.3264","MEAN_MOTION":"15.41403323","RA_OF_ASC_NODE":"161.0135","SEMIMAJOR_AXIS":"6820.104","OBJECT_NAME":"STARLINK-3694","GP_ID":"203786008","CLASSIFICATION_TYPE":"U","FILE":"3450137","APOAPSIS":"443.016","CENTER_NAME":"EARTH","TLE_LINE1":"1 51957U 22025B   22137.58335648 -.00719459  00000-0 -18340-1 0  9999","EPOCH":"2022-05-17T14:00:01.999872","DECAY_DATE":null,"OBJECT_TYPE":"PAYLOAD","REV_AT_EPOCH":"130","TLE_LINE2":"2 51957  53.2172 161.0135 0001535  43.7237 259.3264 15.41403323  1307","EPHEMERIS_TYPE":"0","REF_FRAME":"TEME","ARG_OF_PERICENTER":"43.7237","SITE":"AFETR"},{"TLE_LINE1":"1 51958U 22025C   22137.83334491 -.00717999  00000-0 -19031-1 0  9998","DECAY_DATE":null,"EPOCH":"2022-05-17T20:00:01.000224","TLE_LINE2":"2 51958  53.2175 159.7901 0001717  42.3856 187.7179 15.40227951 12132","REV_AT_EPOCH":"1213","OBJECT_TYPE":"PAYLOAD","SITE":"AFETR","ARG_OF_PERICENTER":"42.3856","REF_FRAME":"TEME","EPHEMERIS_TYPE":"0","MEAN_MOTION":"15.40227951","PERIAPSIS":"444.266","MEAN_ANOMALY":"187.7179","SEMIMAJOR_AXIS":"6823.573","RA_OF_ASC_NODE":"159.7901","FILE":"3450600","OBJECT_NAME":"STARLINK-3692","GP_ID":"203796807","CLASSIFICATION_TYPE":"U","CENTER_NAME":"EARTH","APOAPSIS":"446.610","TIME_SYSTEM":"UTC","INCLINATION":"53.2175","OBJECT_ID":"2022-025C","MEAN_ELEMENT_THEORY":"SGP4","MEAN_MOTION_DOT":"-0.00717999","ELEMENT_SET_NO":"999","BSTAR":"-0.01903100000000","MEAN_MOTION_DDOT":"0.0000000000000","LAUNCH_DATE":"2022-03-09","NORAD_CAT_ID":"51958","RCS_SIZE":"LARGE","PERIOD":"93.493","ECCENTRICITY":"0.00017170","COUNTRY_CODE":"US"},{"MEAN_MOTION":"15.40822137","MEAN_ANOMALY":"206.2115","PERIAPSIS":"442.483","SEMIMAJOR_AXIS":"6821.819","RA_OF_ASC_NODE":"159.8216","FILE":"3450601","OBJECT_NAME":"STARLINK-3704","GP_ID":"203796830","CLASSIFICATION_TYPE":"U","CENTER_NAME":"EARTH","APOAPSIS":"444.884","TLE_LINE1":"1 51959U 22025D   22137.83334491 -.00718643  00000-0 -18676-1 0  9990","DECAY_DATE":null,"EPOCH":"2022-05-17T20:00:01.000224","TLE_LINE2":"2 51959  53.2176 159.8216 0001760  39.5923 206.2115 15.40822137 12139","REV_AT_EPOCH":"1213","OBJECT_TYPE":"PAYLOAD","SITE":"AFETR","ARG_OF_PERICENTER":"39.5923","REF_FRAME":"TEME","EPHEMERIS_TYPE":"0","OBJECT_ID":"2022-025D","MEAN_ELEMENT_THEORY":"SGP4","MEAN_MOTION_DOT":"-0.00718643","ELEMENT_SET_NO":"999","MEAN_MOTION_DDOT":"0.0000000000000","BSTAR":"-0.01867600000000","LAUNCH_DATE":"2022-03-09","RCS_SIZE":"LARGE","NORAD_CAT_ID":"51959","PERIOD":"93.457","ECCENTRICITY":"0.00017600","COUNTRY_CODE":"US","TIME_SYSTEM":"UTC","INCLINATION":"53.2176"},{"BSTAR":"-0.01821400000000","MEAN_MOTION_DDOT":"0.0000000000000","ELEMENT_SET_NO":"999","MEAN_MOTION_DOT":"-0.00719279","MEAN_ELEMENT_THEORY":"SGP4","OBJECT_ID":"2022-025E","COUNTRY_CODE":"US","ECCENTRICITY":"0.00014880","RCS_SIZE":"LARGE","PERIOD":"93.409","NORAD_CAT_ID":"51960","LAUNCH_DATE":"2022-03-09","INCLINATION":"53.2173","TIME_SYSTEM":"UTC","SEMIMAJOR_AXIS":"6819.520","RA_OF_ASC_NODE":"161.0243","MEAN_ANOMALY":"262.3123","PERIAPSIS":"440.370","MEAN_MOTION":"15.41601183","CENTER_NAME":"EARTH","APOAPSIS":"442.400","OBJECT_NAME":"STARLINK-3691","GP_ID":"203786184","CLASSIFICATION_TYPE":"U","FILE":"3450137","EPOCH":"2022-05-17T14:00:01.999872","DECAY_DATE":null,"TLE_LINE1":"1 51960U 22025E   22137.58335648 -.00719279  00000-0 -18214-1 0  9993","EPHEMERIS_TYPE":"0","REF_FRAME":"TEME","ARG_OF_PERICENTER":"45.5166","SITE":"AFETR","OBJECT_TYPE":"PAYLOAD","REV_AT_EPOCH":"130","TLE_LINE2":"2 51960  53.2173 161.0243 0001488  45.5166 262.3123 15.41601183  1302"},{"APOAPSIS":"444.706","CENTER_NAME":"EARTH","FILE":"3450137","GP_ID":"203785683","CLASSIFICATION_TYPE":"U","OBJECT_NAME":"STARLINK-3689","SEMIMAJOR_AXIS":"6821.856","RA_OF_ASC_NODE":"160.9819","MEAN_MOTION":"15.40809327","PERIAPSIS":"442.737","MEAN_ANOMALY":"237.1938","ARG_OF_PERICENTER":"50.9671","SITE":"AFETR","REF_FRAME":"TEME","EPHEMERIS_TYPE":"0","TLE_LINE2":"2 51961  53.2172 160.9819 0001443  50.9671 237.1938 15.40809327  1304","REV_AT_EPOCH":"130","OBJECT_TYPE":"PAYLOAD","DECAY_DATE":null,"EPOCH":"2022-05-17T14:00:01.999872","TLE_LINE1":"1 51961U 22025F   22137.58335648 -.00719202  00000-0 -18701-1 0  9991","LAUNCH_DATE":"2022-03-09","RCS_SIZE":"LARGE","NORAD_CAT_ID":"51961","PERIOD":"93.457","ECCENTRICITY":"0.00014430","COUNTRY_CODE":"US","MEAN_MOTION_DOT":"-0.00719202","ELEMENT_SET_NO":"999","MEAN_MOTION_DDOT":"0.0000000000000","BSTAR":"-0.01870100000000","MEAN_ELEMENT_THEORY":"SGP4","OBJECT_ID":"2022-025F","TIME_SYSTEM":"UTC","INCLINATION":"53.2172"},{"ECCENTRICITY":"0.00016890","COUNTRY_CODE":"US","LAUNCH_DATE":"2022-03-09","RCS_SIZE":"LARGE","PERIOD":"93.412","NORAD_CAT_ID":"51962","OBJECT_ID":"2022-025G","MEAN_ELEMENT_THEORY":"SGP4","ELEMENT_SET_NO":"999","MEAN_MOTION_DDOT":"0.0000000000000","BSTAR":"-0.01823700000000","MEAN_MOTION_DOT":"-0.00719238","INCLINATION":"53.2176","TIME_SYSTEM":"UTC","FILE":"3450608","GP_ID":"203796823","CLASSIFICATION_TYPE":"U","OBJECT_NAME":"STARLINK-3697","CENTER_NAME":"EARTH","APOAPSIS":"442.657","MEAN_MOTION":"15.41560413","MEAN_ANOMALY":"223.4825","PERIAPSIS":"440.354","RA_OF_ASC_NODE":"159.8602","SEMIMAJOR_AXIS":"6819.640","OBJECT_TYPE":"PAYLOAD","TLE_LINE2":"2 51962  53.2176 159.8602 0001689  40.9130 223.4825 15.41560413 12156","REV_AT_EPOCH":"1215","REF_FRAME":"TEME","EPHEMERIS_TYPE":"0","SITE":"AFETR","ARG_OF_PERICENTER":"40.9130","TLE_LINE1":"1 51962U 22025G   22137.83334491 -.00719238  00000-0 -18237-1 0  9998","DECAY_DATE":null,"EPOCH":"2022-05-17T20:00:01.000224"},{"TLE_LINE1":"1 51963U 22025H   22137.83334491 -.00718495  00000-0 -18796-1 0  9993","EPOCH":"2022-05-17T20:00:01.000224","DECAY_DATE":null,"REV_AT_EPOCH":"1213","TLE_LINE2":"2 51963  53.2175 159.8112 0001657  43.6430 197.0195 15.40624118 12136","OBJECT_TYPE":"PAYLOAD","ARG_OF_PERICENTER":"43.6430","SITE":"AFETR","EPHEMERIS_TYPE":"0","REF_FRAME":"TEME","MEAN_ANOMALY":"197.0195","PERIAPSIS":"443.138","MEAN_MOTION":"15.40624118","RA_OF_ASC_NODE":"159.8112","SEMIMAJOR_AXIS":"6822.403","GP_ID":"203790866","OBJECT_NAME":"STARLINK-3675","CLASSIFICATION_TYPE":"U","FILE":"3450364","APOAPSIS":"445.399","CENTER_NAME":"EARTH","TIME_SYSTEM":"UTC","INCLINATION":"53.2175","OBJECT_ID":"2022-025H","MEAN_ELEMENT_THEORY":"SGP4","MEAN_MOTION_DOT":"-0.00718495","BSTAR":"-0.01879600000000","MEAN_MOTION_DDOT":"0.0000000000000","ELEMENT_SET_NO":"999","NORAD_CAT_ID":"51963","RCS_SIZE":"LARGE","PERIOD":"93.469","LAUNCH_DATE":"2022-03-09","COUNTRY_CODE":"US","ECCENTRICITY":"0.00016570"}];
